EUTELSAT 21B            
1 38992U 12062B   25220.92058825  .00000132  00000+0  00000+0 0  9996
2 38992   0.0692 349.2254 0003187 140.9580 180.4873  1.00269317 46690
EUTELSAT 70B            
1 39020U 12069A   25220.91336953 -.00000041  00000+0  00000+0 0  9996
2 39020   0.0649 349.8361 0003561 148.0890 219.0312  1.00271275 46377
EUTELSAT 117 WEST A     
1 39122U 13012A   25221.16174858 -.00000011  00000+0  00000+0 0  9997
2 39122   0.0188 331.7398 0002984 170.6783 116.9018  1.00271761 45331
EUTELSAT 7B             
1 39163U 13022A   25220.90080280  .00000050  00000+0  00000+0 0  9991
2 39163   0.0688 349.8512 0002509  69.7734 229.2974  1.00272722 44815
EXPRESS-AT1             
1 39612U 14010A   25221.19598207  .00000081  00000+0  00000+0 0  9997
2 39612   0.0207 107.4856 0000444 341.2481 355.7518  1.00270332 41926
EXPRESS-AT2             
1 39613U 14010B   25220.92714958 -.00000280  00000+0  00000+0 0  9993
2 39613   0.0198 105.9743 0000210  29.0465 296.2793  1.00267875 41368
EUTELSAT 3B             
1 39773U 14030A   25220.90002279  .00000022  00000+0  00000+0 0  9999
2 39773   0.0644 348.5142 0004345 152.3927 143.8413  1.00270579 41085
EUTELSAT 115 WEST B     
1 40425U 15010B   25221.28898175 -.00000023  00000+0  00000+0 0  9996
2 40425   0.0131 205.6964 0000422  78.7814  22.6702  1.00271548 38308
